NORAD_CAT_ID,OBJECT_NAME,OBJECT_TYPE,EPOCH,MEAN_MOTION,ECCENTRICITY,INCLINATION,RA_OF_ASC_NODE,ARG_OF_PERICENTER,MEAN_ANOMALY,BSTAR,MEAN_MOTION_DOT,MEAN_MOTION_DDOT,TLE_LINE0,TLE_LINE1,TLE_LINE2,SEMIMAJOR_AXIS,PERIOD,APOGEE,PERIGEE,DECAYED
51878.0,STARLINK-3575,PAYLOAD,2022-09-23 17:35:06,15.08838148,0.0001614,53.2188,278.7541,39.236,320.8749,8.751299999999999e-05,1.105e-05,0.0,0 STARLINK-3575,1 51878U 22022AC  22266.73271082  .00001105  00000-0  87513-4 0  9990,2 51878  53.2188 278.7541 0001614  39.2360 320.8749 15.08838148 32450,6917.886,95.438,540.868,538.635,0.0
51878.0,STARLINK-3575,PAYLOAD,2022-09-24 11:04:21,15.0883215,0.0001635,53.2181,275.4819,42.0602,318.0515,5.5069e-05,5.88e-06,0.0,0 STARLINK-3575,1 51878U 22022AC  22267.46135648  .00000588  00000-0  55069-4 0  9993,2 51878  53.2181 275.4819 0001635  42.0602 318.0515 15.08832150 32568,6917.904,95.438,540.9,538.638,0.0
51878.0,STARLINK-3575,PAYLOAD,2022-09-25 04:33:35,15.08840927,0.0001675,53.2185,272.2122,46.3961,313.717,7.4645e-05,9e-06,0.0,0 STARLINK-3575,1 51878U 22022AC  22268.18999286  .00000900  00000-0  74645-4 0  9998,2 51878  53.2185 272.2122 0001675  46.3961 313.7170 15.08840927 32675,6917.878000000002,95.437,540.901,538.5840000000002,0.0
51878.0,STARLINK-3575,PAYLOAD,2022-09-25 07:44:21,15.08844155,0.0001726,53.2187,271.6175,47.7597,312.3541,0.00010582,1.397e-05,0.0,0 STARLINK-3575,1 51878U 22022AC  22268.32247052  .00001397  00000-0  10582-3 0  9991,2 51878  53.2187 271.6175 0001726  47.7597 312.3541 15.08844155 32691,6917.868,95.437,540.927,538.539,0.0
51878.0,STARLINK-3575,PAYLOAD,2022-09-26 05:59:46,15.08830156,0.0001826,53.2191,267.4544,46.9864,313.128,6.3037e-05,7.15e-06,0.0,0 STARLINK-3575,1 51878U 22022AC  22269.24984191  .00000715  00000-0  63037-4 0  9992,2 51878  53.2191 267.4544 0001826  46.9864 313.1280 15.08830156 32839,6917.91,95.438,541.039,538.512,0.0
51878.0,STARLINK-3575,PAYLOAD,2022-09-26 07:35:09,15.08831265,0.0001805,53.2191,267.1582,47.0566,313.0577,6.969e-05,8.21e-06,0.0,0 STARLINK-3575,1 51878U 22022AC  22269.31608171  .00000821  00000-0  69690-4 0  9990,2 51878  53.2191 267.1582 0001805  47.0566 313.0577 15.08831265 32847,6917.906999999997,95.438,541.021,538.523,0.0
51878.0,STARLINK-3575,PAYLOAD,2022-09-27 05:50:33,15.08844149,0.0002028,53.2196,262.9934,47.0642,313.052,-2.5088e-05,-6.88e-06,0.0,0 STARLINK-3575,1 51878U 22022AC  22270.24344065 -.00000688  00000-0 -25088-4 0  9999,2 51878  53.2196 262.9934 0002028  47.0642 313.0520 15.08844149 32987,6917.868,95.437,541.136,538.33,0.0
51878.0,STARLINK-3575,PAYLOAD,2022-09-27 07:25:56,15.08830482,0.0002008999999999,53.2194,262.6965,51.053,309.0641,0.00027086,4.024e-05,0.0,0 STARLINK-3575,1 51878U 22022AC  22270.30967944  .00004024  00000-0  27086-3 0  9998,2 51878  53.2194 262.6965 0002009  51.0530 309.0641 15.08830482 32991,6917.909000000002,95.438,541.164,538.385,0.0
51878.0,STARLINK-3575,PAYLOAD,2022-09-28 04:05:55,15.08900954,7.190000000000001e-05,53.2192,258.8319,55.8907,304.2154,-0.00067046,-0.0001095999999999,0.0,0 STARLINK-3575,1 51878U 22022AC  22271.17078422 -.00010960  00000-0 -67046-3 0  9996,2 51878  53.2192 258.8319 0000719  55.8907 304.2154 15.08900954 33129,6917.694,95.434,540.056,539.062,0.0
51878.0,STARLINK-3575,PAYLOAD,2022-09-28 08:52:05,15.08851993,0.0001703,53.2185,257.9382,47.7021,312.4115,0.00016598,2.355e-05,0.0,0 STARLINK-3575,1 51878U 22022AC  22271.36950940  .00002355  00000-0  16598-3 0  9994,2 51878  53.2185 257.9382 0001703  47.7021 312.4115 15.08851993 33151,6917.844,95.437,540.887,538.531,0.0
51878.0,STARLINK-3575,PAYLOAD,2022-09-29 03:56:43,15.08844045,0.0001044,53.2179,254.3677,60.86600000000001,299.2436,0.00015472,2.176e-05,0.0,0 STARLINK-3575,1 51878U 22022AC  22272.16438965  .00002176  00000-0  15472-3 0  9992,2 51878  53.2179 254.3677 0001044  60.8660 299.2436 15.08844045 33276,6917.868,95.437,540.455,539.011,0.0
51878.0,STARLINK-3575,PAYLOAD,2022-09-29 08:42:53,15.08840048,0.0001785,53.2172,253.4798,33.1879,326.9225,8.4227e-05,1.053e-05,0.0,0 STARLINK-3575,1 51878U 22022AC  22272.36311571  .00001053  00000-0  84227-4 0  9995,2 51878  53.2172 253.4798 0001785  33.1879 326.9225 15.08840048 33307,6917.88,95.438,540.98,538.51,0.0
51878.0,STARLINK-3575,PAYLOAD,2022-09-30 02:12:09,15.08820225,0.0001673,53.2178,250.2074,45.8175,314.2954,1.3107e-05,-8e-07,0.0,0 STARLINK-3575,1 51878U 22022AC  22273.09177186 -.00000080  00000-0  13107-4 0  9997,2 51878  53.2178 250.2074 0001673  45.8175 314.2954 15.08820225 33416,6917.941,95.439,540.9630000000002,538.648,0.0
51878.0,STARLINK-3575,PAYLOAD,2022-09-30 08:33:40,15.08838463,0.0001764999999999,53.2184,249.0181,45.3993,314.7143,-6.8092e-05,-1.372e-05,0.0,0 STARLINK-3575,1 51878U 22022AC  22273.35672403 -.00001372  00000-0 -68092-4 0  9997,2 51878  53.2184 249.0181 0001765  45.3993 314.7143 15.08838463 33455,6917.885,95.438,540.971,538.529,0.0
51878.0,STARLINK-3575,PAYLOAD,2022-09-30 14:55:13,15.08844172,0.0001768,53.2187,247.8293,44.94600000000001,315.1675,-2.0578e-05,-6.16e-06,0.0,0 STARLINK-3575,1 51878U 22022AC  22273.62167909 -.00000616  00000-0 -20578-4 0  9994,2 51878  53.2187 247.8293 0001768  44.9460 315.1675 15.08844172 33498,6917.868,95.437,540.956,538.51,0.0
51878.0,STARLINK-3575,PAYLOAD,2022-10-01 06:49:03,15.08846649,0.000177,53.2188,244.8554,43.8384,316.2749,0.0002157,3.147e-05,0.0,0 STARLINK-3575,1 51878U 22022AC  22274.28407058  .00003147  00000-0  21570-3 0  9991,2 51878  53.2188 244.8554 0001770  43.8384 316.2749 15.08846649 33598,6917.86,95.437,540.95,538.501,0.0
51878.0,STARLINK-3575,PAYLOAD,2022-10-02 05:04:28,15.08832471,0.000183,53.2192,240.6921,42.2723,317.841,5.0589e-05,5.17e-06,0.0,0 STARLINK-3575,1 51878U 22022AC  22275.21144577  .00000517  00000-0  50589-4 0  9990,2 51878  53.2192 240.6921 0001830  42.2723 317.8410 15.08832471 33738,6917.903,95.438,541.034,538.502,0.0
51878.0,STARLINK-3575,PAYLOAD,2022-10-02 08:15:15,15.08830916,0.0001743,53.2189,240.098,44.5357,315.5775,4.1375e-05,3.700000000000001e-06,0.0,0 STARLINK-3575,1 51878U 22022AC  22275.34392824  .00000370  00000-0  41375-4 0  9994,2 51878  53.2189 240.0980 0001743  44.5357 315.5775 15.08830916 33757,6917.908,95.438,540.979,538.567,0.0
51878.0,STARLINK-3575,PAYLOAD,2022-10-02 14:36:47,15.08833067,0.0001761,53.2192,238.9086,47.5778,312.5362,5.0328e-05,5.13e-06,0.0,0 STARLINK-3575,1 51878U 22022AC  22275.60888799  .00000513  00000-0  50328-4 0  9991,2 51878  53.2192 238.9086 0001761  47.5778 312.5362 15.08833067 33797,6917.901999999999,95.438,540.985,538.548,0.0
51878.0,STARLINK-3575,PAYLOAD,2022-10-03 04:55:14,15.08856123,0.0001673,53.2177,236.2325,56.0107,304.1044,8.758e-05,1.107e-05,0.0,0 STARLINK-3575,1 51878U 22022AC  22276.20503207  .00001107  00000-0  87580-4 0  9996,2 51878  53.2177 236.2325 0001673  56.0107 304.1044 15.08856123 33882,6917.831,95.437,540.8530000000002,538.539,0.0
51878.0,STARLINK-3575,PAYLOAD,2022-10-03 06:30:37,15.088602800000002,0.0001785,53.2179,235.9352,50.0636,310.0513,0.00023205,3.409e-05,0.0,0 STARLINK-3575,1 51878U 22022AC  22276.27126987  .00003409  00000-0  23205-3 0  9999,2 51878  53.2179 235.9352 0001785  50.0636 310.0513 15.08860280 33892,6917.818,95.436,540.918,538.4490000000002,0.0
51878.0,STARLINK-3575,PAYLOAD,2022-10-03 14:27:33,15.08865136,0.0001746,53.2175,234.4485,48.5431,311.5711,0.00053851,8.299e-05,0.0,0 STARLINK-3575,1 51878U 22022AC  22276.60246722  .00008299  00000-0  53851-3 0  9998,2 51878  53.2175 234.4485 0001746  48.5431 311.5711 15.08865136 33948,6917.804,95.436,540.876,538.461,0.0
51878.0,STARLINK-3575,PAYLOAD,2022-10-04 04:46:00,15.08866106,0.0001581,53.2179,231.7727,44.9483,315.1637,0.00043337,6.621e-05,0.0,0 STARLINK-3575,1 51878U 22022AC  22277.19862168  .00006621  00000-0  43337-3 0  9996,2 51878  53.2179 231.7727 0001581  44.9483 315.1637 15.08866106 34031,6917.801,95.436,540.759,538.572,0.0
51878.0,STARLINK-3575,PAYLOAD,2022-10-04 14:18:19,15.08856191,0.0001975,53.2173,229.9889,44.419,315.696,0.00015968,2.255e-05,0.0,0 STARLINK-3575,1 51878U 22022AC  22277.59606201  .00002255  00000-0  15968-3 0  9992,2 51878  53.2173 229.9889 0001975  44.4190 315.6960 15.08856191 34093,6917.831,95.437,541.062,538.33,0.0
51878.0,STARLINK-3575,PAYLOAD,2022-10-05 03:01:25,15.08835675,0.0001714,53.2175,227.6095,50.6184,309.496,-0.00025678,-4.372e-05,0.0,0 STARLINK-3575,1 51878U 22022AC  22278.12598780 -.00004372  00000-0 -25678-3 0  9997,2 51878  53.2175 227.6095 0001714  50.6184 309.4960 15.08835675 34176,6917.894,95.438,540.944,538.573,0.0
51878.0,STARLINK-3575,PAYLOAD,2022-10-05 06:12:11,15.08836827,0.0001716,53.2176,227.0147,52.5786,307.5362,-0.00016669,-2.94e-05,0.0,0 STARLINK-3575,1 51878U 22022AC  22278.25846807 -.00002940  00000-0 -16669-3 0  9996,2 51878  53.2176 227.0147 0001716  52.5786 307.5362 15.08836827 34197,6917.89,95.438,540.942,538.568,0.0
51878.0,STARLINK-3575,PAYLOAD,2022-10-05 20:30:40,15.08836744,0.0001672,53.2177,224.3382,51.7292,308.385,0.00012709,1.735e-05,0.0,0 STARLINK-3575,1 51878U 22022AC  22278.85463200  .00001735  00000-0  12709-3 0  9994,2 51878  53.2177 224.3382 0001672  51.7292 308.3850 15.08836744 34282,6917.89,95.438,540.9119999999998,538.599,0.0
51878.0,STARLINK-3575,PAYLOAD,2022-10-06 06:02:59,15.08832976,0.0001686999999999,53.2174,222.5541,49.14,310.9738,0.00016882,2.399e-05,0.0,0 STARLINK-3575,1 51878U 22022AC  22279.25207640  .00002399  00000-0  16882-3 0  9996,2 51878  53.2174 222.5541 0001687  49.1400 310.9738 15.08832976 34348,6917.901999999999,95.438,540.934,538.6,0.0
51878.0,STARLINK-3575,PAYLOAD,2022-10-07 07:29:09,15.08843754,0.0001460999999999,53.2179,217.7963,53.3582,306.7544,0.00032003,4.809e-05,0.0,0 STARLINK-3575,1 51878U 22022AC  22280.31191585  .00004809  00000-0  32003-3 0  9996,2 51878  53.2179 217.7963 0001461  53.3582 306.7544 15.08843754 34507,6917.869000000002,95.437,540.745,538.7230000000002,0.0
